     2              NAVIGATION DATA                         RINEX VERSION / TYPE
CCRINEXN V1.6.0 UX  CDDIS               02-OCT-22 23:31     PGM / RUN BY / DATE 
IGS BROADCAST EPHEMERIS FILE                                COMMENT             
    0.2235D-07  0.7451D-08 -0.1192D-06 -0.5960D-07          ION ALPHA           
    0.1290D+06  0.0000D+00 -0.2621D+06  0.2621D+06          ION BETA            
   -0.931322574615D-09-0.266453525910D-14   147456     2230 DELTA-UTC: A0,A1,T,W
    18                                                      LEAP SECONDS        
                                                            END OF HEADER       
31 22 10  1  0  0  0.0-0.195221509784D-03-0.136424205266D-11 0.000000000000D+00
    0.610000000000D+02 0.230000000000D+02 0.474555481426D-08 0.164424840488D+01
    0.138394534588D-05 0.105773684336D-01 0.103618949652D-04 0.515359188652D+04
    0.518400000000D+06-0.894069671631D-07-0.276897649665D+01 0.219792127609D-06
    0.955168975559D+00 0.179000000000D+03 0.434438463466D+00-0.802640576059D-08
   -0.412874340731D-09 0.100000000000D+01 0.222900000000D+04 0.000000000000D+00
    0.200000000000D+01 0.000000000000D+00-0.135041773319D-07 0.610000000000D+02
    0.511254000000D+06 0.400000000000D+01 0.000000000000D+00 0.000000000000D+00
32 22 10  1  0  0  0.0-0.249332282692D-03-0.115960574476D-10 0.000000000000D+00
    0.870000000000D+02-0.181875000000D+02 0.497127850228D-08-0.508426254840D+00
   -0.795349478722D-06 0.610965664964D-02 0.645592808723D-05 0.515364382362D+04
    0.518400000000D+06-0.558793544769D-08 0.243600681383D+01 0.109896063805D-06
    0.958677570986D+00 0.256125000000D+03-0.229651246061D+01-0.824034324337D-08
    0.112147528538D-09 0.100000000000D+01 0.222900000000D+04 0.000000000000D+00
    0.200000000000D+01 0.000000000000D+00 0.465661287308D-09 0.870000000000D+02
    0.511255000000D+06 0.400000000000D+01 0.000000000000D+00 0.000000000000D+00
18 22 10  1  0 29 36.0 0.304440036416D-04-0.130739863380D-10 0.000000000000D+00
    0.270000000000D+02-0.874687500000D+02 0.404802575938D-08-0.295074796375D+01
   -0.458955764771D-05 0.288078724407D-02 0.755861401558D-05 0.515372531509D+04
    0.520176000000D+06-0.540167093277D-07 0.368700327540D+00 0.000000000000D+00
    0.972752659853D+00 0.239468750000D+03 0.308120555016D+01-0.787282793488D-08
   -0.108575951196D-09 0.100000000000D+01 0.222900000000D+04 0.000000000000D+00
    0.200000000000D+01 0.000000000000D+00-0.838190317154D-08 0.539000000000D+03
    0.513018000000D+06 0.400000000000D+01 0.000000000000D+00 0.000000000000D+00
22 22 10  1  1 59 28.0 0.337481964380D-03 0.693489710102D-11 0.000000000000D+00
    0.200000000000D+02-0.155937500000D+02 0.487091717897D-08-0.391436728225D+00
   -0.774860382080D-06 0.134519104613D-01 0.677071511745D-05 0.515373530388D+04
    0.525568000000D+06-0.126659870148D-06 0.252699291892D+01 0.143423676491D-06
    0.961892035030D+00 0.254906250000D+03-0.184530111471D+01-0.835499087605D-08
    0.939324840936D-10 0.100000000000D+01 0.222900000000D+04 0.000000000000D+00
    0.200000000000D+01 0.000000000000D+00-0.791624188423D-08 0.200000000000D+02
    0.521708000000D+06 0.400000000000D+01 0.000000000000D+00 0.000000000000D+00
 6 22 10  1  1 59 44.0 0.477782916278D-03 0.115960574476D-10 0.000000000000D+00
    0.200000000000D+02-0.992187500000D+02 0.379480092583D-08-0.220709533516D+01
   -0.520050525665D-05 0.245089305099D-02 0.643730163574D-05 0.515353370666D+04
    0.525584000000D+06 0.130385160446D-07 0.355923176166D+00 0.894069671631D-07
    0.988213699753D+00 0.272125000000D+03-0.898327577395D+00-0.784996983990D-08
   -0.215366113720D-09 0.100000000000D+01 0.222900000000D+04 0.000000000000D+00
    0.200000000000D+01 0.000000000000D+00 0.372529029846D-08 0.200000000000D+02
    0.521773000000D+06 0.400000000000D+01 0.000000000000D+00 0.000000000000D+00
13 22 10  1  1 59 44.0 0.397630501539D-03 0.716227077646D-11 0.000000000000D+00
    0.460000000000D+02-0.169375000000D+02 0.463590738986D-08-0.661397847658D+00
   -0.739470124245D-06 0.651668081991D-02 0.673159956932D-05 0.515366701508D+04
    0.525584000000D+06 0.391155481338D-07 0.258026532069D+01 0.763684511185D-07
    0.969167868338D+00 0.255375000000D+03 0.941528168553D+00-0.805819279893D-08
    0.757174396496D-10 0.100000000000D+01 0.222900000000D+04 0.000000000000D+00
    0.200000000000D+01 0.000000000000D+00-0.111758708954D-07 0.460000000000D+02
    0.518418000000D+06 0.400000000000D+01 0.000000000000D+00 0.000000000000D+00
29 22 10  1  1 59 44.0-0.556016340852D-03-0.318323145621D-11 0.000000000000D+00
    0.120000000000D+02 0.609375000000D+01 0.426053461123D-08-0.277891757799D+00
    0.247731804848D-06 0.219585816376D-02 0.267848372459D-05 0.515364240456D+04
    0.525584000000D+06-0.931322574616D-08-0.621681489952D+00 0.298023223877D-07
    0.979452965096D+00 0.336468750000D+03 0.246384976706D+01-0.819676999980D-08
   -0.124290891500D-09 0.100000000000D+01 0.222900000000D+04 0.000000000000D+00
    0.200000000000D+01 0.000000000000D+00-0.102445483208D-07 0.120000000000D+02
    0.522702000000D+06 0.400000000000D+01 0.000000000000D+00 0.000000000000D+00
32 22 10  1  1 59 44.0-0.249416567385D-03-0.115960574476D-10 0.000000000000D+00
    0.360000000000D+02-0.132187500000D+02 0.487556022951D-08 0.539439098467D+00
   -0.812113285065D-06 0.611038657371D-02 0.646151602268D-05 0.515364522552D+04
    0.525584000000D+06-0.745058059692D-07 0.243594772657D+01 0.782310962677D-07
    0.958678341944D+00 0.255250000000D+03-0.229651002924D+01-0.822998566908D-08
    0.796461747257D-10 0.100000000000D+01 0.222900000000D+04 0.000000000000D+00
    0.200000000000D+01 0.000000000000D+00 0.465661287308D-09 0.360000000000D+02
    0.522498000000D+06 0.400000000000D+01 0.000000000000D+00 0.000000000000D+00
 1 22 10  1  2  0  0.0 0.274912454188D-03-0.625277607469D-11 0.000000000000D+00
    0.590000000000D+02-0.106156250000D+03 0.360800743085D-08-0.242794224824D+01
   -0.534020364284D-05 0.120095351012D-01 0.756606459618D-05 0.515366555786D+04
    0.525600000000D+06 0.108033418655D-06 0.364193463148D+00-0.447034835815D-07
    0.988913255475D+00 0.245812500000D+03 0.944148829760D+00-0.760638826517D-08
   -0.982183769039D-10 0.100000000000D+01 0.222900000000D+04 0.000000000000D+00
    0.200000000000D+01 0.000000000000D+00 0.512227416039D-08 0.590000000000D+02
    0.518418000000D+06 0.400000000000D+01 0.000000000000D+00 0.000000000000D+00
 2 22 10  1  2  0  0.0-0.644121319056D-03 0.147792889038D-11 0.000000000000D+00
    0.720000000000D+02-0.926250000000D+02 0.411017120513D-08-0.296451382539D+01
   -0.465288758278D-05 0.200012144633D-01 0.567920506000D-05 0.515489713860D+04
    0.525600000000D+06 0.227242708206D-06 0.270308313781D+00 0.819563865662D-07
    0.966842636122D+00 0.271843750000D+03-0.139300374525D+01-0.761746015493D-08
   -0.155720772110D-09 0.100000000000D+01 0.222900000000D+04 0.000000000000D+00
    0.200000000000D+01 0.000000000000D+00-0.172294676304D-07 0.720000000000D+02
    0.518418000000D+06 0.400000000000D+01 0.000000000000D+00 0.000000000000D+00
 3 22 10  1  2  0  0.0-0.358885154128D-03-0.500222085975D-11 0.000000000000D+00
    0.650000000000D+02-0.408125000000D+02 0.395445043302D-08 0.275529561740D+01
   -0.209175050259D-05 0.449668371584D-02 0.954791903496D-05 0.515354545403D+04
    0.525600000000D+06 0.130385160446D-07 0.139677969773D+01 0.130385160446D-07
    0.975253148191D+00 0.200156250000D+03 0.106522074338D+01-0.765139013968D-08
    0.483948729836D-09 0.100000000000D+01 0.222900000000D+04 0.000000000000D+00
    0.282842707634D+01 0.000000000000D+00 0.186264514923D-08 0.650000000000D+02
    0.518473000000D+06 0.400000000000D+01 0.000000000000D+00 0.000000000000D+00
 4 22 10  1  2  0  0.0-0.110656023025D-03 0.591171556152D-11 0.000000000000D+00
    0.171000000000D+03-0.176250000000D+02 0.473412576677D-08-0.512532872160D+00
   -0.918284058571D-06 0.204839487560D-02 0.652298331261D-05 0.515373967552D+04
    0.525600000000D+06 0.670552253723D-07 0.247856652837D+01 0.372529029846D-08
    0.961838512709D+00 0.251906250000D+03-0.310673704162D+01-0.806640742682D-08
    0.925038531568D-10 0.100000000000D+01 0.222900000000D+04 0.000000000000D+00
    0.200000000000D+01 0.000000000000D+00-0.465661287308D-08 0.683000000000D+03
    0.518474000000D+06 0.400000000000D+01 0.000000000000D+00 0.000000000000D+00
 5 22 10  1  2  0  0.0-0.986708328128D-04-0.147792889038D-11 0.000000000000D+00
    0.180000000000D+03-0.433125000000D+02 0.429446459597D-08 0.733713601202D-01
   -0.208057463169D-05 0.599761109334D-02 0.883638858795D-05 0.515354107666D+04
    0.525600000000D+06-0.726431608200D-07 0.135336427998D+01 0.117346644402D-06
    0.962292880435D+00 0.210718750000D+03 0.112861776858D+01-0.792640159501D-08
    0.400373820034D-09 0.100000000000D+01 0.222900000000D+04 0.000000000000D+00
    0.280000000000D+01 0.000000000000D+00-0.111758708954D-07 0.180000000000D+03
    0.518418000000D+06 0.400000000000D+01 0.000000000000D+00 0.000000000000D+00
 6 22 10  1  2  0  0.0 0.477783381939D-03 0.115960574476D-10 0.000000000000D+00
    0.460000000000D+02-0.992187500000D+02 0.379515808357D-08-0.220475950995D+01
   -0.520050525665D-05 0.245089025702D-02 0.643730163574D-05 0.515353370094D+04
    0.525600000000D+06 0.130385160446D-07 0.355923048892D+00 0.894069671631D-07
    0.988213692438D+00 0.272125000000D+03-0.898329496744D+00-0.785032699763D-08
   -0.215008955986D-09 0.100000000000D+01 0.222900000000D+04 0.000000000000D+00
    0.282842707634D+01 0.000000000000D+00 0.372529029846D-08 0.460000000000D+02
    0.518475000000D+06 0.400000000000D+01 0.000000000000D+00 0.000000000000D+00
